{"fetched_at":"2026-07-20T18:29:24.778Z","source":"https://celestrak.org/NORAD/elements/gp.php?NAME=HAWK&FORMAT=JSON","constellation":"hawkeye-360","records":[{"OBJECT_NAME":"HAWK-12A","OBJECT_ID":"2025-138C","EPOCH":"2026-07-19T23:51:41.449536","CLASSIFICATION_TYPE":"U","MEAN_MOTION":15.18424062,"ECCENTRICITY":0.00146532,"INCLINATION":97.4417,"RA_OF_ASC_NODE":203.2357,"ARG_OF_PERICENTER":30.9891,"MEAN_ANOMALY":329.2205,"EPHEMERIS_TYPE":0,"NORAD_CAT_ID":64623,"ELEMENT_SET_NO":999,"REV_AT_EPOCH":5884,"BSTAR":0.00010466102,"MEAN_MOTION_DOT":0.00002091,"MEAN_MOTION_DDOT":0},{"OBJECT_NAME":"HAWK-13A","OBJECT_ID":"2026-004AF","EPOCH":"2026-07-20T06:11:10.762080","CLASSIFICATION_TYPE":"U","MEAN_MOTION":15.19381507,"ECCENTRICITY":0.00046315,"INCLINATION":97.4451,"RA_OF_ASC_NODE":199.6607,"ARG_OF_PERICENTER":198.5038,"MEAN_ANOMALY":161.6029,"EPHEMERIS_TYPE":0,"NORAD_CAT_ID":67392,"ELEMENT_SET_NO":999,"REV_AT_EPOCH":2878,"BSTAR":0.00011497765,"MEAN_MOTION_DOT":0.00002364,"MEAN_MOTION_DDOT":0},{"OBJECT_NAME":"HAWK-13C","OBJECT_ID":"2026-004AG","EPOCH":"2026-07-19T23:51:38.016000","CLASSIFICATION_TYPE":"U","MEAN_MOTION":15.1937646,"ECCENTRICITY":0.00044335,"INCLINATION":97.4598,"RA_OF_ASC_NODE":199.8343,"ARG_OF_PERICENTER":202.7382,"MEAN_ANOMALY":157.3657,"EPHEMERIS_TYPE":0,"NORAD_CAT_ID":67393,"ELEMENT_SET_NO":999,"REV_AT_EPOCH":2874,"BSTAR":0.00010884899,"MEAN_MOTION_DOT":0.00002234,"MEAN_MOTION_DDOT":0},{"OBJECT_NAME":"HAWK-13B","OBJECT_ID":"2026-004AK","EPOCH":"2026-07-20T06:10:50.458944","CLASSIFICATION_TYPE":"U","MEAN_MOTION":15.19380055,"ECCENTRICITY":0.00057325,"INCLINATION":97.4538,"RA_OF_ASC_NODE":199.9136,"ARG_OF_PERICENTER":203.6562,"MEAN_ANOMALY":156.441,"EPHEMERIS_TYPE":0,"NORAD_CAT_ID":67396,"ELEMENT_SET_NO":999,"REV_AT_EPOCH":2878,"BSTAR":0.00011133633,"MEAN_MOTION_DOT":0.00002287,"MEAN_MOTION_DDOT":0},{"OBJECT_NAME":"HAWK-14B","OBJECT_ID":"2026-067W","EPOCH":"2026-07-20T07:10:01.665696","CLASSIFICATION_TYPE":"U","MEAN_MOTION":15.18454259,"ECCENTRICITY":0.00010118,"INCLINATION":97.4567,"RA_OF_ASC_NODE":159.2798,"ARG_OF_PERICENTER":337.0471,"MEAN_ANOMALY":23.0718,"EPHEMERIS_TYPE":0,"NORAD_CAT_ID":68436,"ELEMENT_SET_NO":999,"REV_AT_EPOCH":1696,"BSTAR":0.00012268527,"MEAN_MOTION_DOT":0.00002459,"MEAN_MOTION_DDOT":0},{"OBJECT_NAME":"HAWK-14C","OBJECT_ID":"2026-067AB","EPOCH":"2026-07-20T04:00:23.752512","CLASSIFICATION_TYPE":"U","MEAN_MOTION":15.18451542,"ECCENTRICITY":0.00020783,"INCLINATION":97.4503,"RA_OF_ASC_NODE":159.0261,"ARG_OF_PERICENTER":11.8571,"MEAN_ANOMALY":348.2711,"EPHEMERIS_TYPE":0,"NORAD_CAT_ID":68441,"ELEMENT_SET_NO":999,"REV_AT_EPOCH":1694,"BSTAR":0.00012226336,"MEAN_MOTION_DOT":0.0000245,"MEAN_MOTION_DDOT":0},{"OBJECT_NAME":"HAWK-14A","OBJECT_ID":"2026-067AJ","EPOCH":"2026-07-20T04:00:33.097536","CLASSIFICATION_TYPE":"U","MEAN_MOTION":15.18455066,"ECCENTRICITY":0.00027425,"INCLINATION":97.4629,"RA_OF_ASC_NODE":159.2803,"ARG_OF_PERICENTER":359.6399,"MEAN_ANOMALY":0.4833,"EPHEMERIS_TYPE":0,"NORAD_CAT_ID":68448,"ELEMENT_SET_NO":999,"REV_AT_EPOCH":1694,"BSTAR":0.00012205311,"MEAN_MOTION_DOT":0.00002446,"MEAN_MOTION_DDOT":0}]}
