HAWK-12A                
1 64623U 25138C   26200.99422974  .00002091  00000+0  10466-3 0  9997
2 64623  97.4417 203.2357 0014653  30.9891 329.2205 15.18424062 58847
HAWK-13A                
1 67392U 26004AF  26201.25776345  .00002364  00000+0  11498-3 0  9999
2 67392  97.4451 199.6607 0004631 198.5038 161.6029 15.19381507 28785
HAWK-13C                
1 67393U 26004AG  26200.99419000  .00002234  00000+0  10885-3 0  9997
2 67393  97.4598 199.8343 0004433 202.7382 157.3657 15.19376460 28744
HAWK-13B                
1 67396U 26004AK  26201.25752846  .00002287  00000+0  11134-3 0  9994
2 67396  97.4538 199.9136 0005732 203.6562 156.4410 15.19380055 28781
HAWK-14B                
1 68436U 26067W   26201.29863039  .00002459  00000+0  12269-3 0  9991
2 68436  97.4567 159.2798 0001011 337.0471  23.0718 15.18454259 16963
HAWK-14C                
1 68441U 26067AB  26201.16694158  .00002450  00000+0  12226-3 0  9991
2 68441  97.4503 159.0261 0002078  11.8571 348.2711 15.18451542 16949
HAWK-14A                
1 68448U 26067AJ  26201.16704974  .00002446  00000+0  12205-3 0  9998
2 68448  97.4629 159.2803 0002742 359.6399   0.4833 15.18455066 16945
